{
  "type": "FeatureCollection",
  "features": [
    {
      "type": "Feature",
      "properties": {
        "norad_id": 34854,
        "name": "COSMOS 2251 DEB",
        "group": "cosmos-2251-debris",
        "lat": -22.88026309757626,
        "lon": 128.76876187624185,
        "alt_km": 645.4026871544911,
        "timestamp": "2025-12-24T09:46:31.400267+00:00",
        "meta_object_name": "COSMOS 2251 DEB",
        "meta_object_id": "1993-036ABY",
        "meta_epoch": "2025-12-24T03:22:47.700768",
        "meta_mean_motion": 14.76734417,
        "meta_eccentricity": 0.0065934,
        "meta_inclination": 74.0296,
        "meta_ra_of_asc_node": 136.2324,
        "meta_arg_of_pericenter": 245.6439,
        "meta_mean_anomaly": 113.7843,
        "meta_ephemeris_type": 0,
        "meta_classification_type": "U",
        "meta_norad_cat_id": 34854,
        "meta_element_set_no": 999,
        "meta_rev_at_epoch": 72050,
        "meta_bstar": 0.00083194,
        "meta_mean_motion_dot": 6.009e-05,
        "meta_mean_motion_ddot": 0,
        "tle_line1": "1 34854U 93036ABY 25358.14082987  .00006009  00000+0  83194-3 0  9999",
        "tle_line2": "2 34854  74.0296 136.2324 0065934 245.6439 113.7843 14.76734417720500"
      },
      "geometry": {
        "type": "Point",
        "coordinates": [
          128.76876187624185,
          -22.88026309757626
        ]
      }
    },
    {
      "type": "Feature",
      "properties": {
        "norad_id": 34856,
        "name": "COSMOS 2251 DEB",
        "group": "cosmos-2251-debris",
        "lat": -33.2441820522265,
        "lon": -108.31031309084123,
        "alt_km": 531.8505852625976,
        "timestamp": "2025-12-24T09:46:31.400277+00:00",
        "meta_object_name": "COSMOS 2251 DEB",
        "meta_object_id": "1993-036ACA",
        "meta_epoch": "2025-12-23T22:26:26.464128",
        "meta_mean_motion": 15.06600376,
        "meta_eccentricity": 0.0031203,
        "meta_inclination": 73.9961,
        "meta_ra_of_asc_node": 61.8174,
        "meta_arg_of_pericenter": 197.4625,
        "meta_mean_anomaly": 336.6413,
        "meta_ephemeris_type": 0,
        "meta_classification_type": "U",
        "meta_norad_cat_id": 34856,
        "meta_element_set_no": 999,
        "meta_rev_at_epoch": 89280,
        "meta_bstar": 0.0015962,
        "meta_mean_motion_dot": 0.00023951,
        "meta_mean_motion_ddot": 0,
        "tle_line1": "1 34856U 93036ACA 25357.93502852  .00023951  00000+0  15962-2 0  9997",
        "tle_line2": "2 34856  73.9961  61.8174 0031203 197.4625 336.6413 15.06600376892800"
      },
      "geometry": {
        "type": "Point",
        "coordinates": [
          -108.31031309084123,
          -33.2441820522265
        ]
      }
    },
    {
      "type": "Feature",
      "properties": {
        "norad_id": 34857,
        "name": "COSMOS 2251 DEB",
        "group": "cosmos-2251-debris",
        "lat": 33.35415292195918,
        "lon": 95.44944154437965,
        "alt_km": 739.7711428356279,
        "timestamp": "2025-12-24T09:46:31.400304+00:00",
        "meta_object_name": "COSMOS 2251 DEB",
        "meta_object_id": "1993-036ACB",
        "meta_epoch": "2025-12-23T07:32:58.871328",
        "meta_mean_motion": 14.58991882,
        "meta_eccentricity": 0.00654006,
        "meta_inclination": 74.0154,
        "meta_ra_of_asc_node": 86.6575,
        "meta_arg_of_pericenter": 209.1339,
        "meta_mean_anomaly": 208.8185,
        "meta_ephemeris_type": 0,
        "meta_classification_type": "U",
        "meta_norad_cat_id": 34857,
        "meta_element_set_no": 999,
        "meta_rev_at_epoch": 88055,
        "meta_bstar": 0.0010820228,
        "meta_mean_motion_dot": 5.205e-05,
        "meta_mean_motion_ddot": 0,
        "tle_line1": "1 34857U 93036ACB 25357.31457027  .00005205  00000+0  10820-2 0  9993",
        "tle_line2": "2 34857  74.0154  86.6575 0065400 209.1339 208.8185 14.58991882880552"
      },
      "geometry": {
        "type": "Point",
        "coordinates": [
          95.44944154437965,
          33.35415292195918
        ]
      }
    },
    {
      "type": "Feature",
      "properties": {
        "norad_id": 34859,
        "name": "COSMOS 2251 DEB",
        "group": "cosmos-2251-debris",
        "lat": -25.226844041693884,
        "lon": 143.10745987820138,
        "alt_km": 522.8252207356236,
        "timestamp": "2025-12-24T09:46:31.400318+00:00",
        "meta_object_name": "COSMOS 2251 DEB",
        "meta_object_id": "1993-036ACD",
        "meta_epoch": "2025-12-24T04:10:42.367872",
        "meta_mean_motion": 15.16428832,
        "meta_eccentricity": 0.0001406,
        "meta_inclination": 74.0269,
        "meta_ra_of_asc_node": 315.8379,
        "meta_arg_of_pericenter": 30.9483,
        "meta_mean_anomaly": 342.6844,
        "meta_ephemeris_type": 0,
        "meta_classification_type": "U",
        "meta_norad_cat_id": 34859,
        "meta_element_set_no": 999,
        "meta_rev_at_epoch": 88532,
        "meta_bstar": 0.0038296,
        "meta_mean_motion_dot": 0.00075227,
        "meta_mean_motion_ddot": 0,
        "tle_line1": "1 34859U 93036ACD 25358.17410148  .00075227  00000+0  38296-2 0  9991",
        "tle_line2": "2 34859  74.0269 315.8379 0001406  30.9483 342.6844 15.16428832885320"
      },
      "geometry": {
        "type": "Point",
        "coordinates": [
          143.10745987820138,
          -25.226844041693884
        ]
      }
    },
    {
      "type": "Feature",
      "properties": {
        "norad_id": 34861,
        "name": "COSMOS 2251 DEB",
        "group": "cosmos-2251-debris",
        "lat": -57.186947216398686,
        "lon": 0.612009440691305,
        "alt_km": 562.2595507676906,
        "timestamp": "2025-12-24T09:46:31.400329+00:00",
        "meta_object_name": "COSMOS 2251 DEB",
        "meta_object_id": "1993-036ACF",
        "meta_epoch": "2025-12-23T20:27:37.747872",
        "meta_mean_motion": 15.03229594,
        "meta_eccentricity": 0.00082989,
        "meta_inclination": 74.0174,
        "meta_ra_of_asc_node": 28.1383,
        "meta_arg_of_pericenter": 17.2491,
        "meta_mean_anomaly": 160.8875,
        "meta_ephemeris_type": 0,
        "meta_classification_type": "U",
        "meta_norad_cat_id": 34861,
        "meta_element_set_no": 999,
        "meta_rev_at_epoch": 88259,
        "meta_bstar": 0.0024555152,
        "meta_mean_motion_dot": 0.00033393,
        "meta_mean_motion_ddot": 0,
        "tle_line1": "1 34861U 93036ACF 25357.85252023  .00033393  00000+0  24555-2 0  9995",
        "tle_line2": "2 34861  74.0174  28.1383 0008298  17.2491 160.8875 15.03229594882590"
      },
      "geometry": {
        "type": "Point",
        "coordinates": [
          0.612009440691305,
          -57.186947216398686
        ]
      }
    },
    {
      "type": "Feature",
      "properties": {
        "norad_id": 34874,
        "name": "COSMOS 2251 DEB",
        "group": "cosmos-2251-debris",
        "lat": -22.675772604054767,
        "lon": 45.470079861557856,
        "alt_km": 780.005931132654,
        "timestamp": "2025-12-24T09:46:31.400339+00:00",
        "meta_object_name": "COSMOS 2251 DEB",
        "meta_object_id": "1993-036ACM",
        "meta_epoch": "2025-12-24T03:20:05.216064",
        "meta_mean_motion": 14.36360726,
        "meta_eccentricity": 0.0050493,
        "meta_inclination": 74.0393,
        "meta_ra_of_asc_node": 52.8302,
        "meta_arg_of_pericenter": 74.3519,
        "meta_mean_anomaly": 315.5944,
        "meta_ephemeris_type": 0,
        "meta_classification_type": "U",
        "meta_norad_cat_id": 34874,
        "meta_element_set_no": 999,
        "meta_rev_at_epoch": 87208,
        "meta_bstar": 0.00080173,
        "meta_mean_motion_dot": 2.356e-05,
        "meta_mean_motion_ddot": 0,
        "tle_line1": "1 34874U 93036ACM 25358.13894926  .00002356  00000+0  80173-3 0  9999",
        "tle_line2": "2 34874  74.0393  52.8302 0050493  74.3519 315.5944 14.36360726872088"
      },
      "geometry": {
        "type": "Point",
        "coordinates": [
          45.470079861557856,
          -22.675772604054767
        ]
      }
    },
    {
      "type": "Feature",
      "properties": {
        "norad_id": 34875,
        "name": "COSMOS 2251 DEB",
        "group": "cosmos-2251-debris",
        "lat": -18.064819522773828,
        "lon": -38.29082734068144,
        "alt_km": 727.9865645211094,
        "timestamp": "2025-12-24T09:46:31.400350+00:00",
        "meta_object_name": "COSMOS 2251 DEB",
        "meta_object_id": "1993-036ACN",
        "meta_epoch": "2025-12-24T03:03:13.110912",
        "meta_mean_motion": 14.48963213,
        "meta_eccentricity": 0.0016283,
        "meta_inclination": 74.0436,
        "meta_ra_of_asc_node": 136.8791,
        "meta_arg_of_pericenter": 259.8933,
        "meta_mean_anomaly": 278.6319,
        "meta_ephemeris_type": 0,
        "meta_classification_type": "U",
        "meta_norad_cat_id": 34875,
        "meta_element_set_no": 999,
        "meta_rev_at_epoch": 87920,
        "meta_bstar": 0.00046116,
        "meta_mean_motion_dot": 1.723e-05,
        "meta_mean_motion_ddot": 0,
        "tle_line1": "1 34875U 93036ACN 25358.12723508  .00001723  00000+0  46116-3 0  9992",
        "tle_line2": "2 34875  74.0436 136.8791 0016283 259.8933 278.6319 14.48963213879200"
      },
      "geometry": {
        "type": "Point",
        "coordinates": [
          -38.29082734068144,
          -18.064819522773828
        ]
      }
    }
  ]
}